{"type": "FeatureCollection", "features": [ {"type": "Feature", "properties": {"norad_id": 34031, "name": "COSMOS 2251 DEB", "group": "cosmos-2251-debris", "lat": -19.620813445590002, "lon": -20.21426941559642, "alt_km": 695.1272852036091, "timestamp": "2025-12-03T04:52:30.032155+00:00", "meta": {"OBJECT_NAME": "COSMOS 2251 DEB", "OBJECT_ID": "1993-036HS", "EPOCH": "2025-12-02T15:20:46.573152", "MEAN_MOTION": 14.59490366, "ECCENTRICITY": 0.0022924, "INCLINATION": 74.0117, "RA_OF_ASC_NODE": 154.9951, "ARG_OF_PERICENTER": 275.6845, "MEAN_ANOMALY": 204.348, "EPHEMERIS_TYPE": 0, "CLASSIFICATION_TYPE": "U", "NORAD_CAT_ID": 34031, "ELEMENT_SET_NO": 999, "REV_AT_EPOCH": 88418, "BSTAR": 0.0015313, "MEAN_MOTION_DOT": 7.271e-05, "MEAN_MOTION_DDOT": 0}, "tle": {"line1": "1 34031U 93036HS  25336.63942793  .00007271  00000+0  15313-2 0  9995", "line2": "2 34031  74.0117 154.9951 0022924 275.6845 204.3480 14.59490366884180"}}, "geometry": {"type": "Point", "coordinates": [-20.21426941559642, -19.620813445590002]}}, {"type": "Feature", "properties": {"norad_id": 34035, "name": "COSMOS 2251 DEB", "group": "cosmos-2251-debris", "lat": -74.02292906019842, "lon": -86.73381517965923, "alt_km": 733.2951221444546, "timestamp": "2025-12-03T04:52:30.032166+00:00", "meta": {"OBJECT_NAME": "COSMOS 2251 DEB", "OBJECT_ID": "1993-036HW", "EPOCH": "2025-12-02T05:00:36.292032", "MEAN_MOTION": 14.51735369, "ECCENTRICITY": 0.0044012, "INCLINATION": 74.0663, "RA_OF_ASC_NODE": 8.9407, "ARG_OF_PERICENTER": 13.1226, "MEAN_ANOMALY": 101.5887, "EPHEMERIS_TYPE": 0, "CLASSIFICATION_TYPE": "U", "NORAD_CAT_ID": 34035, "ELEMENT_SET_NO": 999, "REV_AT_EPOCH": 87813, "BSTAR": 0.0016762, "MEAN_MOTION_DOT": 6.798e-05, "MEAN_MOTION_DDOT": 0}, "tle": {"line1": "1 34035U 93036HW  25336.20875338  .00006798  00000+0  16762-2 0  9994", "line2": "2 34035  74.0663   8.9407 0044012  13.1226 101.5887 14.51735369878138"}}, "geometry": {"type": "Point", "coordinates": [-86.73381517965923, -74.02292906019842]}}, {"type": "Feature", "properties": {"norad_id": 34036, "name": "COSMOS 2251 DEB", "group": "cosmos-2251-debris", "lat": 28.117348980060708, "lon": -20.31087966063858, "alt_km": 578.3833251613005, "timestamp": "2025-12-03T04:52:30.032177+00:00", "meta": {"OBJECT_NAME": "COSMOS 2251 DEB", "OBJECT_ID": "1993-036HX", "EPOCH": "2025-12-02T16:57:02.293056", "MEAN_MOTION": 14.93706161, "ECCENTRICITY": 0.0014915, "INCLINATION": 74.0212, "RA_OF_ASC_NODE": 169.4967, "ARG_OF_PERICENTER": 204.1612, "MEAN_ANOMALY": 155.8874, "EPHEMERIS_TYPE": 0, "CLASSIFICATION_TYPE": "U", "NORAD_CAT_ID": 34036, "ELEMENT_SET_NO": 999, "REV_AT_EPOCH": 88420, "BSTAR": 0.0039569, "MEAN_MOTION_DOT": 0.00042189, "MEAN_MOTION_DDOT": 0}, "tle": {"line1": "1 34036U 93036HX  25336.70627654  .00042189  00000+0  39569-2 0  9990", "line2": "2 34036  74.0212 169.4967 0014915 204.1612 155.8874 14.93706161884200"}}, "geometry": {"type": "Point", "coordinates": [-20.31087966063858, 28.117348980060708]}}, {"type": "Feature", "properties": {"norad_id": 34037, "name": "COSMOS 2251 DEB", "group": "cosmos-2251-debris", "lat": 71.86555373588834, "lon": -172.91883045878993, "alt_km": 734.2709910160793, "timestamp": "2025-12-03T04:52:30.032187+00:00", "meta": {"OBJECT_NAME": "COSMOS 2251 DEB", "OBJECT_ID": "1993-036HY", "EPOCH": "2025-12-02T16:42:10.177632", "MEAN_MOTION": 14.34617436, "ECCENTRICITY": 0.0052426, "INCLINATION": 74.0526, "RA_OF_ASC_NODE": 68.8235, "ARG_OF_PERICENTER": 121.8661, "MEAN_ANOMALY": 238.7609, "EPHEMERIS_TYPE": 0, "CLASSIFICATION_TYPE": "U", "NORAD_CAT_ID": 34037, "ELEMENT_SET_NO": 999, "REV_AT_EPOCH": 87573, "BSTAR": 0.00075803, "MEAN_MOTION_DOT": 2.151e-05, "MEAN_MOTION_DDOT": 0}, "tle": {"line1": "1 34037U 93036HY  25336.69595113  .00002151  00000+0  75803-3 0  9990", "line2": "2 34037  74.0526  68.8235 0052426 121.8661 238.7609 14.34617436875733"}}, "geometry": {"type": "Point", "coordinates": [-172.91883045878993, 71.86555373588834]}}, {"type": "Feature", "properties": {"norad_id": 34040, "name": "COSMOS 2251 DEB", "group": "cosmos-2251-debris", "lat": 67.62306365315008, "lon": -142.72349556643366, "alt_km": 899.5179770797322, "timestamp": "2025-12-03T04:52:30.032198+00:00", "meta": {"OBJECT_NAME": "COSMOS 2251 DEB", "OBJECT_ID": "1993-036JB", "EPOCH": "2025-12-02T16:06:25.738272", "MEAN_MOTION": 13.6835879, "ECCENTRICITY": 0.0342803, "INCLINATION": 73.9554, "RA_OF_ASC_NODE": 82.4991, "ARG_OF_PERICENTER": 37.958, "MEAN_ANOMALY": 324.5168, "EPHEMERIS_TYPE": 0, "CLASSIFICATION_TYPE": "U", "NORAD_CAT_ID": 34040, "ELEMENT_SET_NO": 999, "REV_AT_EPOCH": 83462, "BSTAR": 0.00041445, "MEAN_MOTION_DOT": 5.12e-06, "MEAN_MOTION_DDOT": 0}, "tle": {"line1": "1 34040U 93036JB  25336.67113123  .00000512  00000+0  41445-3 0  9993", "line2": "2 34040  73.9554  82.4991 0342803  37.9580 324.5168 13.68358790834623"}}, "geometry": {"type": "Point", "coordinates": [-142.72349556643366, 67.62306365315008]}}, {"type": "Feature", "properties": {"norad_id": 34045, "name": "COSMOS 2251 DEB", "group": "cosmos-2251-debris", "lat": 15.531979591571977, "lon": 143.72049744215022, "alt_km": 784.4370028693565, "timestamp": "2025-12-03T04:52:30.032208+00:00", "meta": {"OBJECT_NAME": "COSMOS 2251 DEB", "OBJECT_ID": "1993-036JG", "EPOCH": "2025-12-02T10:23:56.237856", "MEAN_MOTION": 14.34059349, "ECCENTRICITY": 0.00253313, "INCLINATION": 74.0386, "RA_OF_ASC_NODE": 329.6908, "ARG_OF_PERICENTER": 56.3233, "MEAN_ANOMALY": 94.3535, "EPHEMERIS_TYPE": 0, "CLASSIFICATION_TYPE": "U", "NORAD_CAT_ID": 34045, "ELEMENT_SET_NO": 999, "REV_AT_EPOCH": 87885, "BSTAR": 0.00012868688, "MEAN_MOTION_DOT": 3.35e-06, "MEAN_MOTION_DDOT": 0}, "tle": {"line1": "1 34045U 93036JG  25336.43328979  .00000335  00000+0  12869-3 0  9990", "line2": "2 34045  74.0386 329.6908 0025331  56.3233  94.3535 14.34059349878856"}}, "geometry": {"type": "Point", "coordinates": [143.72049744215022, 15.531979591571977]}}, {"type": "Feature", "properties": {"norad_id": 34046, "name": "COSMOS 2251 DEB", "group": "cosmos-2251-debris", "lat": 73.95196763792582, "lon": 112.4492296512812, "alt_km": 682.2604081984937, "timestamp": "2025-12-03T04:52:30.032218+00:00", "meta": {"OBJECT_NAME": "COSMOS 2251 DEB", "OBJECT_ID": "1993-036JH", "EPOCH": "2025-12-02T14:05:57.714720", "MEAN_MOTION": 14.46334985, "ECCENTRICITY": 0.00749358, "INCLINATION": 74.0406, "RA_OF_ASC_NODE": 29.4271, "ARG_OF_PERICENTER": 115.8562, "MEAN_ANOMALY": 8.6297, "EPHEMERIS_TYPE": 0, "CLASSIFICATION_TYPE": "U", "NORAD_CAT_ID": 34046, "ELEMENT_SET_NO": 999, "REV_AT_EPOCH": 87679, "BSTAR": 0.0014600135, "MEAN_MOTION_DOT": 5.4e-05, "MEAN_MOTION_DDOT": 0}, "tle": {"line1": "1 34046U 93036JH  25336.58747355  .00005400  00000+0  14600-2 0  9992", "line2": "2 34046  74.0406  29.4271 0074935 115.8562   8.6297 14.46334985876797"}}, "geometry": {"type": "Point", "coordinates": [112.4492296512812, 73.95196763792582]}}, {"type": "Feature", "properties": {"norad_id": 34050, "name": "COSMOS 2251 DEB", "group": "cosmos-2251-debris", "lat": -64.12878174796306, "lon": -117.55994552289248, "alt_km": 1056.4834821798568, "timestamp": "2025-12-03T04:52:30.032228+00:00", "meta": {"OBJECT_NAME": "COSMOS 2251 DEB", "OBJECT_ID": "1993-036JM", "EPOCH": "2025-12-02T14:30:22.614624", "MEAN_MOTION": 13.96153438, "ECCENTRICITY": 0.02147119, "INCLINATION": 74.0888, "RA_OF_ASC_NODE": 27.4376, "ARG_OF_PERICENTER": 94.3517, "MEAN_ANOMALY": 25.9575, "EPHEMERIS_TYPE": 0, "CLASSIFICATION_TYPE": "U", "NORAD_CAT_ID": 34050, "ELEMENT_SET_NO": 999, "REV_AT_EPOCH": 85290, "BSTAR": 0.00069510747, "MEAN_MOTION_DOT": 1.137e-05, "MEAN_MOTION_DDOT": 0}, "tle": {"line1": "1 34050U 93036JM  25336.60442841  .00001137  00000+0  69511-3 0  9997", "line2": "2 34050  74.0888  27.4376 0214711  94.3517  25.9575 13.96153438852903"}}, "geometry": {"type": "Point", "coordinates": [-117.55994552289248, -64.12878174796306]}}, {"type": "Feature", "properties": {"norad_id": 34053, "name": "COSMOS 2251 DEB", "group": "cosmos-2251-debris", "lat": 30.82746806597196, "lon": -92.50124325971056, "alt_km": 769.3298697558348, "timestamp": "2025-12-03T04:52:30.032239+00:00", "meta": {"OBJECT_NAME": "COSMOS 2251 DEB", "OBJECT_ID": "1993-036JQ", "EPOCH": "2025-12-02T19:49:45.067584", "MEAN_MOTION": 13.49134804, "ECCENTRICITY": 0.0421641, "INCLINATION": 73.8444, "RA_OF_ASC_NODE": 258.1448, "ARG_OF_PERICENTER": 48.3615, "MEAN_ANOMALY": 315.2801, "EPHEMERIS_TYPE": 0, "CLASSIFICATION_TYPE": "U", "NORAD_CAT_ID": 34053, "ELEMENT_SET_NO": 999, "REV_AT_EPOCH": 82550, "BSTAR": 0.00099152, "MEAN_MOTION_DOT": 1.058e-05, "MEAN_MOTION_DDOT": 0}, "tle": {"line1": "1 34053U 93036JQ  25336.82621606  .00001058  00000+0  99152-3 0  9998", "line2": "2 34053  73.8444 258.1448 0421641  48.3615 315.2801 13.49134804825501"}}, "geometry": {"type": "Point", "coordinates": [-92.50124325971056, 30.82746806597196]}}, {"type": "Feature", "properties": {"norad_id": 34056, "name": "COSMOS 2251 DEB", "group": "cosmos-2251-debris", "lat": -71.47036337100901, "lon": 34.9165174756527, "alt_km": 894.7001390720916, "timestamp": "2025-12-03T04:52:30.032249+00:00", "meta": {"OBJECT_NAME": "COSMOS 2251 DEB", "OBJECT_ID": "1993-036JT", "EPOCH": "2025-12-02T16:15:49.307328", "MEAN_MOTION": 14.20472105, "ECCENTRICITY": 0.01249108, "INCLINATION": 74.0589, "RA_OF_ASC_NODE": 94.3672, "ARG_OF_PERICENTER": 144.7841, "MEAN_ANOMALY": 327.7482, "EPHEMERIS_TYPE": 0, "CLASSIFICATION_TYPE": "U", "NORAD_CAT_ID": 34056, "ELEMENT_SET_NO": 999, "REV_AT_EPOCH": 86268, "BSTAR": 0.0019617914, "MEAN_MOTION_DOT": 4.532e-05, "MEAN_MOTION_DDOT": 0}, "tle": {"line1": "1 34056U 93036JT  25336.67765402  .00004532  00000+0  19618-2 0  9995", "line2": "2 34056  74.0589  94.3672 0124910 144.7841 327.7482 14.20472105862689"}}, "geometry": {"type": "Point", "coordinates": [34.9165174756527, -71.47036337100901]}}]}